STARLINK-31990          
1 60024U 24111J   26068.42628766  .00000198  00000+0  18820-4 0  9994
2 60024  53.1603  76.8141 0001315  79.9686 280.1464 15.30198254 98992
LIZZIESAT-2 (LS-2)      
1 62383U 24247G   26068.49140277  .00009388  00000+0  34517-3 0  9997
2 62383  44.9909 117.0823 0004092 327.5136  32.5495 15.28222796 67716
